{"type": "FeatureCollection", "features": [ {"type": "Feature", "properties": {"norad_id": 30283, "name": "FENGYUN 1C DEB", "group": "fengyun-1c-debris", "lat": 3.9071644293652046, "lon": 157.59442714629563, "alt_km": 960.5078164100505, "timestamp": "2025-12-09T04:51:47.768430+00:00", "meta": {"OBJECT_NAME": "FENGYUN 1C DEB", "OBJECT_ID": "1999-025YU", "EPOCH": "2025-12-08T20:01:53.156064", "MEAN_MOTION": 14.01973744, "ECCENTRICITY": 0.0185187, "INCLINATION": 98.8671, "RA_OF_ASC_NODE": 336.6255, "ARG_OF_PERICENTER": 54.1251, "MEAN_ANOMALY": 63.733, "EPHEMERIS_TYPE": 0, "CLASSIFICATION_TYPE": "U", "NORAD_CAT_ID": 30283, "ELEMENT_SET_NO": 999, "REV_AT_EPOCH": 96636, "BSTAR": 0.00014692, "MEAN_MOTION_DOT": 2.18e-06, "MEAN_MOTION_DDOT": 0}, "tle": {"line1": "1 30283U 99025YU  25342.83464301  .00000218  00000+0  14692-3 0  9991", "line2": "2 30283  98.8671 336.6255 0185187  54.1251  63.7330 14.01973744966367"}}, "geometry": {"type": "Point", "coordinates": [157.59442714629563, 3.9071644293652046]}}, {"type": "Feature", "properties": {"norad_id": 30284, "name": "FENGYUN 1C DEB", "group": "fengyun-1c-debris", "lat": 52.90381882434119, "lon": 39.934326675339044, "alt_km": 779.4668053475534, "timestamp": "2025-12-09T04:51:47.768459+00:00", "meta": {"OBJECT_NAME": "FENGYUN 1C DEB", "OBJECT_ID": "1999-025YV", "EPOCH": "2025-12-08T15:52:37.906176", "MEAN_MOTION": 14.28718932, "ECCENTRICITY": 0.0037926, "INCLINATION": 98.7198, "RA_OF_ASC_NODE": 51.1035, "ARG_OF_PERICENTER": 120.5572, "MEAN_ANOMALY": 32.2579, "EPHEMERIS_TYPE": 0, "CLASSIFICATION_TYPE": "U", "NORAD_CAT_ID": 30284, "ELEMENT_SET_NO": 999, "REV_AT_EPOCH": 97457, "BSTAR": 0.0023719, "MEAN_MOTION_DOT": 5.974e-05, "MEAN_MOTION_DDOT": 0}, "tle": {"line1": "1 30284U 99025YV  25342.66154984  .00005974  00000+0  23719-2 0  9999", "line2": "2 30284  98.7198  51.1035 0037926 120.5572  32.2579 14.28718932974570"}}, "geometry": {"type": "Point", "coordinates": [39.934326675339044, 52.90381882434119]}}, {"type": "Feature", "properties": {"norad_id": 30286, "name": "FENGYUN 1C DEB", "group": "fengyun-1c-debris", "lat": -31.505125339475164, "lon": -6.951088034187273, "alt_km": 902.5132796674661, "timestamp": "2025-12-09T04:51:47.768471+00:00", "meta": {"OBJECT_NAME": "FENGYUN 1C DEB", "OBJECT_ID": "1999-025YX", "EPOCH": "2025-12-08T14:15:40.811904", "MEAN_MOTION": 14.12721356, "ECCENTRICITY": 0.0064555, "INCLINATION": 98.69, "RA_OF_ASC_NODE": 347.0798, "ARG_OF_PERICENTER": 144.4441, "MEAN_ANOMALY": 331.2801, "EPHEMERIS_TYPE": 0, "CLASSIFICATION_TYPE": "U", "NORAD_CAT_ID": 30286, "ELEMENT_SET_NO": 999, "REV_AT_EPOCH": 97400, "BSTAR": 0.00015856, "MEAN_MOTION_DOT": 2.58e-06, "MEAN_MOTION_DDOT": 0}, "tle": {"line1": "1 30286U 99025YX  25342.59422236  .00000258  00000+0  15856-3 0  9995", "line2": "2 30286  98.6900 347.0798 0064555 144.4441 331.2801 14.12721356974008"}}, "geometry": {"type": "Point", "coordinates": [-6.951088034187273, -31.505125339475164]}}, {"type": "Feature", "properties": {"norad_id": 30287, "name": "FENGYUN 1C DEB", "group": "fengyun-1c-debris", "lat": 24.174670108111062, "lon": 13.864690632529639, "alt_km": 698.9549842082779, "timestamp": "2025-12-09T04:51:47.768482+00:00", "meta": {"OBJECT_NAME": "FENGYUN 1C DEB", "OBJECT_ID": "1999-025YY", "EPOCH": "2025-12-08T20:49:55.801344", "MEAN_MOTION": 13.68573359, "ECCENTRICITY": 0.0413544, "INCLINATION": 98.6377, "RA_OF_ASC_NODE": 17.4764, "ARG_OF_PERICENTER": 22.6131, "MEAN_ANOMALY": 153.9472, "EPHEMERIS_TYPE": 0, "CLASSIFICATION_TYPE": "U", "NORAD_CAT_ID": 30287, "ELEMENT_SET_NO": 999, "REV_AT_EPOCH": 93805, "BSTAR": 0.0017449, "MEAN_MOTION_DOT": 2.688e-05, "MEAN_MOTION_DDOT": 0}, "tle": {"line1": "1 30287U 99025YY  25342.86800696  .00002688  00000+0  17449-2 0  9994", "line2": "2 30287  98.6377  17.4764 0413544  22.6131 153.9472 13.68573359938053"}}, "geometry": {"type": "Point", "coordinates": [13.864690632529639, 24.174670108111062]}}, {"type": "Feature", "properties": {"norad_id": 30288, "name": "FENGYUN 1C DEB", "group": "fengyun-1c-debris", "lat": -29.789780911499225, "lon": -120.88035391098285, "alt_km": 796.9792628911473, "timestamp": "2025-12-09T04:51:47.768492+00:00", "meta": {"OBJECT_NAME": "FENGYUN 1C DEB", "OBJECT_ID": "1999-025YZ", "EPOCH": "2025-12-08T20:02:59.361792", "MEAN_MOTION": 14.32527308, "ECCENTRICITY": 0.0020369, "INCLINATION": 99.3949, "RA_OF_ASC_NODE": 64.1607, "ARG_OF_PERICENTER": 333.7602, "MEAN_ANOMALY": 143.7947, "EPHEMERIS_TYPE": 0, "CLASSIFICATION_TYPE": "U", "NORAD_CAT_ID": 30288, "ELEMENT_SET_NO": 999, "REV_AT_EPOCH": 97513, "BSTAR": 0.0028509, "MEAN_MOTION_DOT": 7.705e-05, "MEAN_MOTION_DDOT": 0}, "tle": {"line1": "1 30288U 99025YZ  25342.83540928  .00007705  00000+0  28509-2 0  9995", "line2": "2 30288  99.3949  64.1607 0020369 333.7602 143.7947 14.32527308975139"}}, "geometry": {"type": "Point", "coordinates": [-120.88035391098285, -29.789780911499225]}}, {"type": "Feature", "properties": {"norad_id": 30289, "name": "FENGYUN 1C DEB", "group": "fengyun-1c-debris", "lat": 65.13260611081043, "lon": 59.80437029456478, "alt_km": 797.498565320092, "timestamp": "2025-12-09T04:51:47.768502+00:00", "meta": {"OBJECT_NAME": "FENGYUN 1C DEB", "OBJECT_ID": "1999-025ZA", "EPOCH": "2025-12-08T20:42:57.727296", "MEAN_MOTION": 14.2577099, "ECCENTRICITY": 0.0037133, "INCLINATION": 98.9267, "RA_OF_ASC_NODE": 79.2813, "ARG_OF_PERICENTER": 341.7929, "MEAN_ANOMALY": 143.0857, "EPHEMERIS_TYPE": 0, "CLASSIFICATION_TYPE": "U", "NORAD_CAT_ID": 30289, "ELEMENT_SET_NO": 999, "REV_AT_EPOCH": 97026, "BSTAR": 0.0031894, "MEAN_MOTION_DOT": 7.593e-05, "MEAN_MOTION_DDOT": 0}, "tle": {"line1": "1 30289U 99025ZA  25342.86316814  .00007593  00000+0  31894-2 0  9990", "line2": "2 30289  98.9267  79.2813 0037133 341.7929 143.0857 14.25770990970263"}}, "geometry": {"type": "Point", "coordinates": [59.80437029456478, 65.13260611081043]}}, {"type": "Feature", "properties": {"norad_id": 30290, "name": "FENGYUN 1C DEB", "group": "fengyun-1c-debris", "lat": -74.6328664229224, "lon": -151.55970960707128, "alt_km": 664.6522815643848, "timestamp": "2025-12-09T04:51:47.768512+00:00", "meta": {"OBJECT_NAME": "FENGYUN 1C DEB", "OBJECT_ID": "1999-025ZB", "EPOCH": "2025-12-08T18:35:32.229312", "MEAN_MOTION": 14.74490948, "ECCENTRICITY": 0.001638, "INCLINATION": 102.6224, "RA_OF_ASC_NODE": 82.4006, "ARG_OF_PERICENTER": 63.2549, "MEAN_ANOMALY": 87.4161, "EPHEMERIS_TYPE": 0, "CLASSIFICATION_TYPE": "U", "NORAD_CAT_ID": 30290, "ELEMENT_SET_NO": 999, "REV_AT_EPOCH": 97820, "BSTAR": 0.0073181, "MEAN_MOTION_DOT": 0.00049042, "MEAN_MOTION_DDOT": 0}, "tle": {"line1": "1 30290U 99025ZB  25342.77467858  .00049042  00000+0  73181-2 0  9997", "line2": "2 30290 102.6224  82.4006 0016380  63.2549  87.4161 14.74490948978203"}}, "geometry": {"type": "Point", "coordinates": [-151.55970960707128, -74.6328664229224]}}, {"type": "Feature", "properties": {"norad_id": 30291, "name": "FENGYUN 1C DEB", "group": "fengyun-1c-debris", "lat": -60.23491490183666, "lon": 39.63653564855533, "alt_km": 784.259387466519, "timestamp": "2025-12-09T04:51:47.768522+00:00", "meta": {"OBJECT_NAME": "FENGYUN 1C DEB", "OBJECT_ID": "1999-025ZC", "EPOCH": "2025-12-08T16:29:17.213856", "MEAN_MOTION": 14.55062988, "ECCENTRICITY": 0.0112231, "INCLINATION": 97.2318, "RA_OF_ASC_NODE": 232.0181, "ARG_OF_PERICENTER": 31.6981, "MEAN_ANOMALY": 30.5763, "EPHEMERIS_TYPE": 0, "CLASSIFICATION_TYPE": "U", "NORAD_CAT_ID": 30291, "ELEMENT_SET_NO": 999, "REV_AT_EPOCH": 97649, "BSTAR": 0.0041685, "MEAN_MOTION_DOT": 0.00019569, "MEAN_MOTION_DDOT": 0}, "tle": {"line1": "1 30291U 99025ZC  25342.68700479  .00019569  00000+0  41685-2 0  9992", "line2": "2 30291  97.2318 232.0181 0112231  31.6981  30.5763 14.55062988976499"}}, "geometry": {"type": "Point", "coordinates": [39.63653564855533, -60.23491490183666]}}, {"type": "Feature", "properties": {"norad_id": 30293, "name": "FENGYUN 1C DEB", "group": "fengyun-1c-debris", "lat": -36.69584860623529, "lon": -13.191485330638262, "alt_km": 736.9781839108491, "timestamp": "2025-12-09T04:51:47.768532+00:00", "meta": {"OBJECT_NAME": "FENGYUN 1C DEB", "OBJECT_ID": "1999-025ZE", "EPOCH": "2025-12-08T11:26:13.860384", "MEAN_MOTION": 14.48903722, "ECCENTRICITY": 0.00766464, "INCLINATION": 99.2547, "RA_OF_ASC_NODE": 172.9927, "ARG_OF_PERICENTER": 127.3342, "MEAN_ANOMALY": 263.7879, "EPHEMERIS_TYPE": 0, "CLASSIFICATION_TYPE": "U", "NORAD_CAT_ID": 30293, "ELEMENT_SET_NO": 999, "REV_AT_EPOCH": 98915, "BSTAR": 0.0012430487, "MEAN_MOTION_DOT": 4.831e-05, "MEAN_MOTION_DDOT": 0}, "tle": {"line1": "1 30293U 99025ZE  25342.47654931  .00004831  00000+0  12430-2 0  9994", "line2": "2 30293  99.2547 172.9927 0076646 127.3342 263.7879 14.48903722989157"}}, "geometry": {"type": "Point", "coordinates": [-13.191485330638262, -36.69584860623529]}}, {"type": "Feature", "properties": {"norad_id": 30294, "name": "FENGYUN 1C DEB", "group": "fengyun-1c-debris", "lat": -43.79693814998176, "lon": -20.342030812990412, "alt_km": 640.853543681872, "timestamp": "2025-12-09T04:51:47.768542+00:00", "meta": {"OBJECT_NAME": "FENGYUN 1C DEB", "OBJECT_ID": "1999-025ZF", "EPOCH": "2025-12-08T11:22:03.913824", "MEAN_MOTION": 14.34930362, "ECCENTRICITY": 0.01978047, "INCLINATION": 98.3556, "RA_OF_ASC_NODE": 330.8507, "ARG_OF_PERICENTER": 322.455, "MEAN_ANOMALY": 189.8682, "EPHEMERIS_TYPE": 0, "CLASSIFICATION_TYPE": "U", "NORAD_CAT_ID": 30294, "ELEMENT_SET_NO": 999, "REV_AT_EPOCH": 98475, "BSTAR": 0.00078636164, "MEAN_MOTION_DOT": 2.741e-05, "MEAN_MOTION_DDOT": 0}, "tle": {"line1": "1 30294U 99025ZF  25342.47365641  .00002741  00000+0  78636-3 0  9991", "line2": "2 30294  98.3556 330.8507 0197804 322.4550 189.8682 14.34930362984752"}}, "geometry": {"type": "Point", "coordinates": [-20.342030812990412, -43.79693814998176]}}]}